module.exports = [
  {
    name: 'Cartosat-2F',
    norad_id: 43111,
    mission: 'High-resolution Earth observation and cartography',
    purpose: 'Cartography, urban planning, infrastructure monitoring, disaster management',
    launch_year: 2018,
    image_url: 'https://upload.wikimedia.org/wikipedia/commons/3/3a/Cartosat-2_series_satellite.jpg',
    tle_line1: '1 43111U 18004A   25332.19249595  .00001165  00000+0  58427-4 0  9994',
    tle_line2: '2 43111  97.4340  30.0638 0000769 229.2981 130.8187 15.19277789436810',
  },
  {
    name: 'Oceansat-3 (EOS-06)',
    norad_id: 54361,
    mission: 'Ocean color and wind vector monitoring',
    purpose: 'Fisheries, coastal monitoring, cyclone tracking, ocean surface temperature',
    launch_year: 2022,
    image_url: 'https://www.isro.gov.in/sites/default/files/styles/medium/public/2022-11/Oceansat-3.jpg',
    tle_line1: '1 54361U 22158A   25333.32206681  .00000398  00000+0  12141-3 0  9992',
    tle_line2: '2 54361  98.3554  69.2186 0000927 157.0879 203.0355 14.47013502158933',
  },
  {
    name: 'RISAT-2BR1',
    norad_id: 44857,
    mission: 'All-weather radar imaging for surveillance and Earth observation',
    purpose: 'Agriculture, forestry, soil moisture mapping, defense reconnaissance',
    launch_year: 2019,
    image_url: 'https://upload.wikimedia.org/wikipedia/commons/4/47/RISAT_render.png',
    tle_line1: '1 44857U 19089F   25333.11281602  .00004426  00000+0  34360-3 0  9996',
    tle_line2: '2 44857  36.9592 218.4582 0013090 346.8417  13.1982 15.01224651327115',
  },
  {
    name: 'Resourcesat-2A',
    norad_id: 41877,
    mission: 'Multi-spectral Earth observation for resource monitoring',
    purpose: 'Agriculture, forestry, water resources, land use planning',
    launch_year: 2016,
    image_url: 'https://upload.wikimedia.org/wikipedia/commons/6/6f/Resourcesat-2A.jpg',
    tle_line1: '1 41877U 16074A   25332.62097334  .00000159  00000+0  92935-4 0  9990',
    tle_line2: '2 41877  98.7772  42.5581 0001207 322.6074  37.5019 14.21611889465807',
  },
  {
    name: 'Cartosat-3',
    norad_id: 44804,
    mission: 'Very high-resolution Earth observation',
    purpose: 'Urban planning, infrastructure development, cartography, defense applications',
    launch_year: 2019,
    image_url: 'https://upload.wikimedia.org/wikipedia/commons/3/3a/Cartosat-2_series_satellite.jpg',
    tle_line1: '1 44804U 19081A   25332.79898954  .00002312  00000+0  11293-3 0  9999',
    tle_line2: '2 44804  97.4604  32.5570 0013691 130.9070 229.3352 15.19179285333041',
  },
  {
    name: 'Scatsat-1',
    norad_id: 41790,
    mission: 'Ocean wind vector and scatterometry',
    purpose: 'Cyclone prediction, ocean weather monitoring, climate studies',
    launch_year: 2016,
    image_url: 'https://upload.wikimedia.org/wikipedia/commons/6/64/Oceansat-2_model.jpg',
    tle_line1: '1 41790U 16059H   25333.12493679  .00001924  00000+0  26224-3 0  9993',
    tle_line2: '2 41790  98.1484  29.6247 0055569 171.2602 188.9590 14.78861935 72018',
  },
  {
    name: 'INSAT-3D',
    norad_id: 39216,
    mission: 'Meteorological observation and weather monitoring',
    purpose: 'Imaging, atmospheric sounding, data relay, cyclone tracking',
    launch_year: 2013,
    image_url: 'https://upload.wikimedia.org/wikipedia/commons/8/8f/Insat-3D.jpg',
    tle_line1: '1 39216U 13038B   25333.24695869 -.00000317  00000+0  00000+0 0  9991',
    tle_line2: '2 39216   1.4066  85.1576 0001583 145.5529  56.0574  1.00276282 45071',
  },
  {
    name: 'INSAT-3DR',
    norad_id: 41789,
    mission: 'Advanced meteorological observation and weather forecasting',
    purpose: 'Weather imaging, atmospheric sounding, search and rescue, data collection',
    launch_year: 2016,
    image_url: 'https://upload.wikimedia.org/wikipedia/commons/8/8f/Insat-3D.jpg',
    tle_line1: '1 41789U 16059G   25333.28037723  .00001064  00000+0  18927-3 0  9998',
    tle_line2: '2 41789  97.8024 340.6079 0027519 106.3172 254.1064 14.68820001490650',
  },
  {
    name: 'IRNSS-1A (NavIC)',
    norad_id: 39087,
    mission: 'Regional navigation satellite system',
    purpose: 'Navigation for India and surrounding region, timing services',
    launch_year: 2013,
    image_url: 'https://upload.wikimedia.org/wikipedia/commons/8/84/IRNSS_satellite_model.png',
    tle_line1: '1 39087U 13009B   25333.31239841  .00000825  00000+0  27757-3 0  9992',
    tle_line2: '2 39087  98.3639 156.7221 0012486  92.1990 268.0629 14.39574558668411',
  },
  {
    name: 'IRNSS-1C (NavIC)',
    norad_id: 40269,
    mission: 'Regional navigation satellite system',
    purpose: 'Navigation for India and surrounding region, timing services',
    launch_year: 2014,
    image_url: 'https://upload.wikimedia.org/wikipedia/commons/8/84/IRNSS_satellite_model.png',
    tle_line1: '1 40269U 14061A   25332.93184909 -.00000139  00000+0  00000+0 0  9993',
    tle_line2: '2 40269   6.0058  92.8962 0017888   3.0988  30.5537  1.00269934 40683',
  },
  {
    name: 'IRNSS-1E (NavIC)',
    norad_id: 41382,
    mission: 'Regional navigation satellite system',
    purpose: 'Navigation for India and surrounding region, timing services',
    launch_year: 2016,
    image_url: 'https://upload.wikimedia.org/wikipedia/commons/8/84/IRNSS_satellite_model.png',
    tle_line1: '1 41382U 16014A   25333.27971889 -.00000256  00000+0  00000+0 0  9999',
    tle_line2: '2 41382   0.0656  34.9047 0002534 217.0126 212.0101  1.00272906 35537',
  },
  {
    name: 'IRNSS-1F (NavIC)',
    norad_id: 43241,
    mission: 'Regional navigation satellite system',
    purpose: 'Navigation for India and surrounding region, timing services',
    launch_year: 2017,
    image_url: 'https://upload.wikimedia.org/wikipedia/commons/8/84/IRNSS_satellite_model.png',
    tle_line1: '1 43241U 18027A   25333.17892494 -.00000060  00000+0  00000+0 0  9997',
    tle_line2: '2 43241   2.8069  86.3833 1308535 102.2376  74.6058  1.19315855 33473',
  },
  {
    name: 'IRNSS-1I (NavIC)',
    norad_id: 43683,
    mission: 'Regional navigation satellite system',
    purpose: 'Navigation for India and surrounding region, timing services',
    launch_year: 2018,
    image_url: 'https://upload.wikimedia.org/wikipedia/commons/8/84/IRNSS_satellite_model.png',
    tle_line1: '1 43683U 18085A   25332.60697203 -.00000257  00000+0  00000+0 0  9997',
    tle_line2: '2 43683   2.5692 103.4187 0001615  56.2445 266.5866  1.00265618 26043',
  },
  {
    name: 'GSAT-29',
    norad_id: 43698,
    mission: 'High-throughput communications satellite',
    purpose: 'Broadband for remote and tribal regions, VSAT services',
    launch_year: 2018,
    image_url: 'https://upload.wikimedia.org/wikipedia/commons/6/69/GSAT-29_integration.jpg',
    tle_line1: '1 43698U 18089A   25333.23222528  .00000106  00000+0  00000+0 0  9993',
    tle_line2: '2 43698   0.0402 121.8534 0003524 121.7945 323.3771  1.00271114 25791',
  },
];
